GLOBALSTAR M084         
1 38040U 11080A   25295.02759494 -.00000095  00000+0  46979-4 0  9991
2 38040  52.0032  22.3243 0000264  89.0131  82.3790 12.62269520638684
GLOBALSTAR M080         
1 38041U 11080B   25295.28582473 -.00000097  00000+0  37867-4 0  9999
2 38041  52.0083  23.1746 0001008 102.3727 292.2637 12.62269753638843
GLOBALSTAR M082         
1 38042U 11080C   25295.31106353 -.00000072  00000+0  17459-3 0  9990
2 38042  52.0097 338.5749 0000719 105.2495 334.6417 12.62264070639550
GLOBALSTAR M092         
1 38043U 11080D   25295.14654628 -.00000103  00000+0  48926-5 0  9995
2 38043  52.0083  69.4561 0000753 101.0091  70.0526 12.62267230637980
GLOBALSTAR M090         
1 38044U 11080E   25295.33845725 -.00000071  00000+0  18382-3 0  9992
2 38044  52.0142 332.3712 0000442 118.4732 325.0738 12.62263267639678
GLOBALSTAR M086         
1 38045U 11080F   25295.28306807 -.00000079  00000+0  13803-3 0  9991
2 38045  51.9914 332.8566 0000732 226.4181 211.8426 12.62278433639617
GLOBALSTAR M097         
1 39072U 13005A   25295.29343382 -.00000101  00000+0  17059-4 0  9995
2 39072  52.0037 247.5060 0000453  80.7802 279.3116 12.62266639586866
GLOBALSTAR M093         
1 39073U 13005B   25295.26743356 -.00000088  00000+0  87030-4 0  9998
2 39073  52.0096 240.8423 0000530 100.2784 259.8143 12.62265517586816
